GLOBALSTAR M094         
1 39074U 13005C   25263.67270433 -.00000112  00000+0 -44475-4 0  9995
2 39074  51.9945 251.3924 0000563  89.9526 270.1405 12.62269958584430
GLOBALSTAR M096         
1 39075U 13005D   25263.84424440 -.00000077  00000+0  14889-3 0  9998
2 39075  52.0072 299.4608 0000640  99.5678 260.5261 12.62266972583375
GLOBALSTAR M078         
1 39076U 13005E   25263.65980628 -.00000121  00000+0 -93552-4 0  9999
2 39076  51.9898  24.4007 0001280  59.4744 300.6249 12.62259901581979
GLOBALSTAR M095         
1 39077U 13005F   25263.36905999 -.00000113  00000+0 -52111-4 0  9993
2 39077  52.0105  22.5061 0001166  88.4897 271.6104 12.62259787581795
GLOBALSTAR M087         
1 52888U 22064A   25263.85796561 -.00000095  00000+0  46876-4 0  9999
2 52888  51.9985 162.4163 0000865  74.3264 285.7698 12.62288566157125
